52837,STARLINK-4036,2025-12-13T21:34:59.260800,2025-12-14T13:04:14.456627,53.2169,59.2508,0.0001287,94.9859,265.128,15.08839568,94900-5,19283,1 52837U 22062H   25347.89929700 -.00000137  00000+0  94900-5 0  9990,2 52837  53.2169  59.2508 0001287  94.9859 265.1280 15.08839568192834
52838,STARLINK-4092,2025-12-13T21:40:18.469056,2025-12-14T13:04:14.456627,53.2193,59.2219,0.0001419,90.8818,269.2337,15.08823062,42630-4,19283,1 52838U 22062J   25347.90299154  .00000390  00000+0  42630-4 0  9998,2 52838  53.2193  59.2219 0001419  90.8818 269.2337 15.08823062192838
52839,STARLINK-4048,2025-12-13T15:02:49.789824,2025-12-14T13:04:14.456627,53.2178,60.4701,0.0001257,90.6228,269.4909,15.08851501,79818-4,19279,1 52839U 22062K   25347.62696516  .00000983  00000+0  79818-4 0  9997,2 52839  53.2178  60.4701 0001257  90.6228 269.4909 15.08851501192796
52840,STARLINK-4049,2025-12-13T21:45:35.856864,2025-12-14T13:04:14.456627,53.2179,59.3315,0.0001299,94.7731,265.3409,15.08847497,27781-3,19283,1 52840U 22062L   25347.90666501  .00004137  00000+0  27781-3 0  9997,2 52840  53.2179  59.3315 0001299  94.7731 265.3409 15.08847497192831
52841,STARLINK-4065,2025-12-13T11:36:10.670976,2025-12-14T13:04:14.456627,53.2188,61.1157,0.0001214,89.4295,270.6837,15.08844858,41416-4,19277,1 52841U 22062M   25347.48345684  .00000371  00000+0  41416-4 0  9995,2 52841  53.2188  61.1157 0001214  89.4295 270.6837 15.08844858192775
52842,STARLINK-4046,2025-12-13T21:29:40.507008,2025-12-14T13:04:14.456627,53.2178,59.1842,0.0001267,89.1751,270.9387,15.08830948,-10719-3,19283,1 52842U 22062N   25347.89560772 -.00001993  00000+0 -10719-3 0  9992,2 52842  53.2178  59.1842 0001267  89.1751 270.9387 15.08830948192830
52843,STARLINK-4188,2025-12-13T22:33:16.560864,2025-12-14T13:04:14.456627,53.2197,59.0683,0.0001355,85.7473,274.3674,15.0884127,-19433-5,19284,1 52843U 22062P   25347.93977501 -.00000319  00000+0 -19433-5 0  9995,2 52843  53.2197  59.0683 0001355  85.7473 274.3674 15.08841270192843
52844,STARLINK-4208,2025-12-13T11:46:45.718752,2025-12-14T13:04:14.456627,53.2198,61.0834,9.64e-05,101.3028,258.8073,15.08848876,-53884-4,19277,1 52844U 22062Q   25347.49080693 -.00001145  00000+0 -53884-4 0  9999,2 52844  53.2198  61.0834 0000964 101.3028 258.8073 15.08848876192773
52845,STARLINK-4168,2025-12-13T22:38:35.002752,2025-12-14T13:04:14.456627,53.2166,59.1174,0.0001381,92.6921,267.4229,15.08842466,77000-4,19284,1 52845U 22062R   25347.94346068  .00000938  00000+0  77000-4 0  9994,2 52845  53.2166  59.1174 0001381  92.6921 267.4229 15.08842466192848
52846,STARLINK-4212,2025-12-13T14:43:00.541344,2025-12-14T13:04:14.456627,53.2188,60.543,0.0001451,93.3142,266.8017,15.08868483,-19712-3,19279,1 52846U 22062S   25347.61320071 -.00003426  00000+0 -19712-3 0  9997,2 52846  53.2188  60.5430 0001451  93.3142 266.8017 15.08868483192794
52847,STARLINK-4206,2025-12-13T22:22:40.160928,2025-12-14T13:04:14.456627,53.2187,59.0999,0.0001356,90.6023,269.5124,15.08852472,92726-4,19284,1 52847U 22062T   25347.93240927  .00001189  00000+0  92726-4 0  9993,2 52847  53.2187  59.0999 0001356  90.6023 269.5124 15.08852472192845
52848,STARLINK-4202,2025-12-13T14:52:15.468672,2025-12-14T13:04:14.456627,53.2173,60.5038,0.0001327,96.9923,263.122,15.08842736,19995-3,19279,1 52848U 22062U   25347.61962348  .00002896  00000+0  19995-3 0  9999,2 52848  53.2173  60.5038 0001327  96.9923 263.1220 15.08842736192791
52849,STARLINK-4197,2025-12-13T12:41:05.421408,2025-12-14T13:04:14.456627,53.218,50.9142,0.000159,103.0644,257.0526,15.08835802,21845-3,19291,1 52849U 22062V   25347.52853497  .00003190  00000+0  21845-3 0  9999,2 52849  53.2180  50.9142 0001590 103.0644 257.0526 15.08835802192912
52850,STARLINK-4187,2025-12-13T21:41:43.143648,2025-12-14T13:04:14.456627,53.2183,59.5838,0.0001393,89.7806,270.3346,15.08844249,20546-3,19283,1 52850U 22062W   25347.90397157  .00002984  00000+0  20546-3 0  9996,2 52850  53.2183  59.5838 0001393  89.7806 270.3346 15.08844249192839
52851,STARLINK-3809,2025-12-13T14:11:09.832992,2025-12-14T13:04:14.456627,53.2174,50.6319,0.0001503,100.5588,259.5573,15.0884558,92061-4,19292,1 52851U 22062X   25347.59108603  .00001178  00000+0  92061-4 0  9994,2 52851  53.2174  50.6319 0001503 100.5588 259.5573 15.08845580192928
52852,STARLINK-4184,2025-12-13T14:21:46.083456,2025-12-14T13:04:14.456627,53.2182,50.598,0.0001641,104.4013,255.7162,15.08857837,-10527-3,19292,1 52852U 22062Y   25347.59845004 -.00001964  00000+0 -10527-3 0  9999,2 52852  53.2182  50.5980 0001641 104.4013 255.7162 15.08857837192920
52853,STARLINK-4189,2025-12-13T10:45:54.110016,2025-12-14T13:04:14.456627,53.2178,51.2466,0.0001474,72.8864,287.2289,15.08835255,21744-4,19290,1 52853U 22062Z   25347.44854294  .00000058  00000+0  21744-4 0  9990,2 52853  53.2178  51.2466 0001474  72.8864 287.2289 15.08835255192907
52854,STARLINK-4204,2025-12-13T14:05:51.536256,2025-12-14T13:04:14.456627,53.2175,50.6495,0.0001621,95.3626,264.7551,15.08848116,15845-3,19292,1 52854U 22062AA  25347.58740204  .00002235  00000+0  15845-3 0  9994,2 52854  53.2175  50.6495 0001621  95.3626 264.7551 15.08848116192924
52855,STARLINK-4209,2025-12-13T21:46:55.896960,2025-12-14T13:04:14.456627,53.2167,49.2112,0.0001313,82.4235,277.6906,15.08846499,71955-3,19297,1 52855U 22062AB  25347.90759140  .00011184  00000+0  71955-3 0  9997,2 52855  53.2167  49.2112 0001313  82.4235 277.6906 15.08846499192971
52856,STARLINK-4201,2025-12-13T10:51:11.812320,2025-12-14T13:04:14.456627,53.2183,51.3055,0.0001009,70.9363,289.1738,15.08844011,14405-3,19290,1 52856U 22062AC  25347.45222005  .00002006  00000+0  14405-3 0  9993,2 52856  53.2183  51.3055 0001009  70.9363 289.1738 15.08844011192908
52857,STARLINK-4199,2025-12-13T21:36:18.709920,2025-12-14T13:04:14.456627,53.2198,49.2473,0.0001585,83.734,276.3832,15.08838643,-85804-4,19297,1 52857U 22062AD  25347.90021655 -.00001653  00000+0 -85804-4 0  9993,2 52857  53.2198  49.2473 0001585  83.7340 276.3832 15.08838643192975
52858,STARLINK-4198,2025-12-13T10:44:30.435072,2025-12-14T13:04:14.456627,53.2179,51.3064,0.0001244,89.3338,270.7796,15.08844153,78178-4,19290,1 52858U 22062AE  25347.44757448  .00000957  00000+0  78178-4 0  9999,2 52858  53.2179  51.3064 0001244  89.3338 270.7796 15.08844153192909
52859,STARLINK-4196,2025-12-13T21:31:00.951456,2025-12-14T13:04:14.456627,53.2188,49.2628,0.0001264,94.601,265.5127,15.08841073,15094-3,19297,1 52859U 22062AF  25347.89653879  .00002115  00000+0  15094-3 0  9997,2 52859  53.2188  49.2628 0001264  94.6010 265.5127 15.08841073192975
52860,STARLINK-4191,2025-12-13T21:41:36.473568,2025-12-14T13:04:14.456627,53.2193,49.2312,0.0001398,86.3086,273.8066,15.08842314,33033-4,19297,1 52860U 22062AG  25347.90389437  .00000238  00000+0  33033-4 0  9995,2 52860  53.2193  49.2312 0001398  86.3086 273.8066 15.08842314192975
52861,STARLINK-4112,2025-12-13T21:05:53.837376,2025-12-14T13:04:14.456627,53.2167,49.3481,0.0001033,87.8643,272.2467,15.08835557,84814-5,19297,1 52861U 22062AH  25347.87909534 -.00000153  00000+0  84814-5 0  9999,2 52861  53.2167  49.3481 0001033  87.8643 272.2467 15.08835557192975
52862,STARLINK-4010,2025-12-13T21:25:42.030912,2025-12-14T13:04:14.456627,53.2187,49.2777,0.0001264,76.4306,283.6827,15.08854816,16513-3,19297,1 52862U 22062AJ  25347.89284758  .00002342  00000+0  16513-3 0  9996,2 52862  53.2187  49.2777 0001264  76.4306 283.6827 15.08854816192976
52863,STARLINK-4270,2025-12-13T11:42:48.347712,2025-12-14T13:04:14.456627,53.2182,51.0941,0.0001221,81.293,278.8201,15.08827569,14296-3,19291,1 52863U 22062AK  25347.48805958  .00001987  00000+0  14296-3 0  9993,2 52863  53.2182  51.0941 0001221  81.2930 278.8201 15.08827569192917
52864,STARLINK-4267,2025-12-13T21:20:24.779616,2025-12-14T13:04:14.456627,53.2184,49.2959,0.0001298,84.6157,275.4984,15.08840572,85215-4,19297,1 52864U 22062AL  25347.88917569  .00001069  00000+0  85215-4 0  9991,2 52864  53.2184  49.2959 0001298  84.6157 275.4984 15.08840572192976
52865,STARLINK-4274,2025-12-13T20:59:12.931872,2025-12-14T13:04:14.456627,53.2168,49.3598,0.0001144,99.2456,260.8666,15.08840037,10219-3,19297,1 52865U 22062AM  25347.87445523  .00001339  00000+0  10219-3 0  9998,2 52865  53.2168  49.3598 0001144  99.2456 260.8666 15.08840037192974
52866,STARLINK-4272,2025-12-13T21:09:48.950784,2025-12-14T13:04:14.456627,53.2178,49.3286,0.0001098,96.1304,263.9813,15.08837628,96093-5,19297,1 52866U 22062AN  25347.88181656 -.00000135  00000+0  96093-5 0  9994,2 52866  53.2178  49.3286 0001098  96.1304 263.9813 15.08837628192976
52867,STARLINK-4126,2025-12-13T20:48:37.803744,2025-12-14T13:04:14.456627,53.2182,49.3926,0.0001337,92.3029,267.8117,15.08841135,76727-4,19297,1 52867U 22062AP  25347.86710421  .00000933  00000+0  76727-4 0  9997,2 52867  53.2182  49.3926 0001337  92.3029 267.8117 15.08841135192979
52868,STARLINK-4261,2025-12-13T21:04:31.827360,2025-12-14T13:04:14.456627,53.2185,49.3716,0.0001221,97.5556,262.5575,15.08838681,87684-4,19297,1 52868U 22062AQ  25347.87814615  .00001108  00000+0  87684-4 0  9998,2 52868  53.2185  49.3716 0001221  97.5556 262.5575 15.08838681192976
52869,STARLINK-4266,2025-12-13T20:39:20.015712,2025-12-14T13:04:14.456627,53.2169,39.4225,0.0001253,97.5083,262.6051,15.0883738,19613-4,19310,1 52869U 22062AR  25347.86064833  .00000024  00000+0  19613-4 0  9990,2 52869  53.2169  39.4225 0001253  97.5083 262.6051 15.08837380193105
52870,STARLINK-4195,2025-12-13T20:53:55.125024,2025-12-14T13:04:14.456627,53.2185,49.3759,0.0001261,90.1392,269.9744,15.0884063,-14124-4,19297,1 52870U 22062AS  25347.87077691 -.00000513  00000+0 -14124-4 0  9996,2 52870  53.2185  49.3759 0001261  90.1392 269.9744 15.08840630192973
52871,STARLINK-4207,2025-12-13T20:23:26.904480,2025-12-14T13:04:14.456627,53.2184,39.4712,0.0001078,94.5339,265.5776,15.08841197,46301-4,19310,1 52871U 22062AT  25347.84961695  .00000449  00000+0  46301-4 0  9998,2 52871  53.2184  39.4712 0001078  94.5339 265.5776 15.08841197193109
